[{"OBJECT_NAME":"STARLINK-31830","OBJECT_ID":"2024-091S","EPOCH":"2026-03-09T07:20:07.250208","MEAN_MOTION":15.3019125,"ECCENTRICITY":0.00011634,"INCLINATION":53.1627,"RA_OF_ASC_NODE":28.808,"ARG_OF_PERICENTER":84.9013,"MEAN_ANOMALY":275.212,"EPHEMERIS_TYPE":0,"CLASSIFICATION_TYPE":"U","NORAD_CAT_ID":59769,"ELEMENT_SET_NO":999,"REV_AT_EPOCH":10294,"BSTAR":1.7515982e-5,"MEAN_MOTION_DOT":1.6e-6,"MEAN_MOTION_DDOT":0},{"OBJECT_NAME":"HAWK-11B","OBJECT_ID":"2024-247C","EPOCH":"2026-03-09T10:44:06.809856","MEAN_MOTION":15.2884707,"ECCENTRICITY":0.00046902,"INCLINATION":45.0161,"RA_OF_ASC_NODE":115.761,"ARG_OF_PERICENTER":333.0326,"MEAN_ANOMALY":27.0314,"EPHEMERIS_TYPE":0,"CLASSIFICATION_TYPE":"U","NORAD_CAT_ID":62379,"ELEMENT_SET_NO":999,"REV_AT_EPOCH":6773,"BSTAR":0.00032841927,"MEAN_MOTION_DOT":9.093e-5,"MEAN_MOTION_DDOT":0}]
