STARLINK-31830          
1 59769U 24091S   26068.30563947  .00000160  00000+0  17516-4 0  9991
2 59769  53.1627  28.8080 0001163  84.9013 275.2120 15.30191250102946
HAWK-11B                
1 62379U 24247C   26068.44730104  .00009093  00000+0  32842-3 0  9993
2 62379  45.0161 115.7610 0004690 333.0326  27.0314 15.28847070 67738
